STARLINK-1132           
1 45044U 20006A   26238.03595118  .00055097  00000+0  43424-3 0  9993
2 45044  53.1472 155.9116 0002406  97.3581 262.7711 15.70917181363293
STARLINK-11323 [DTC]    
1 61533U 24184B   26238.40638490  .00001273  00000+0  15419-4 0  9998
2 61533  53.1572 119.5951 0005320  90.7729 269.3899 15.69701060107074
STARLINK-11325 [DTC]    
1 61538U 24184G   26238.70508338  .00000176  00000+0  63050-5 0  9999
2 61538  53.1586 117.8939 0000612  81.7014 278.4074 15.69710273107125
STARLINK-11322 [DTC]    
1 61542U 24184L   26238.68556558  .00001370  00000+0  16167-4 0  9991
2 61542  53.1597 118.4990 0001405  84.4083 275.7095 15.69711338108175
STARLINK-11327 [DTC]    
1 61695U 24195J   26238.93285012 -.00000633  00000+0 -36808-6 0  9993
2 61695  53.1589 266.9172 0001220  68.9698 291.1450 15.69702615105778
STARLINK-11321 [DTC]    
1 61877U 24204D   26238.70025494  .00000356  00000+0  77940-5 0  9998
2 61877  53.1593 238.3986 0001173 102.6996 257.4153 15.69708029103605
STARLINK-11324 [DTC]    
1 61879U 24204F   26238.30842573  .00000937  00000+0  12596-4 0  9991
2 61879  53.1577 240.2153 0001095 105.1481 254.9658 15.69702989103552
STARLINK-11328 [DTC]    
1 61880U 24204G   26238.23984861 -.00000332  00000+0  21150-5 0  9999
2 61880  53.1577 240.4967 0000836 100.2408 259.8704 15.69708927103549
STARLINK-11329 [DTC]    
1 61881U 24204H   26238.29861428  .00000361  00000+0  78377-5 0  9993
2 61881  53.1592 240.1461 0000944  82.6318 277.4807 15.69704004103559
STARLINK-11320 [DTC]    
1 61942U 24209D   26238.75292082  .00112184  00000+0  91783-3 0  9992
2 61942  53.1569 253.2510 0001330  89.2512 270.8659 15.69723782103387
STARLINK-11326 [DTC]    
1 62010U 24213C   26238.55452468  .00118443  00000+0  96754-3 0  9995
2 62010  53.1564 283.9415 0001264  97.5524 262.5637 15.69736183101598
