STARLINK-11518 [DTC]    
1 62462U 24254A   26238.49984365  .00181617  00000+0  13758-2 0  9995
2 62462  43.0001 279.8119 0001636 318.3223  41.7520 15.71052942 96117
STARLINK-11511 [DTC]    
1 62468U 24254G   26238.53688402  .00172391  00000+0  13177-2 0  9993
2 62468  43.0005 279.2134 0002541  29.1660 330.9350 15.70868017 96117
STARLINK-11514 [DTC]    
1 62514U 25004D   26238.73728333  .00164189  00000+0  12550-2 0  9999
2 62514  43.0006 125.6466 0001663 249.4743 110.5946 15.70896482 93954
STARLINK-11510 [DTC]    
1 62516U 25004F   26238.69933713  .00165845  00000+0  12693-2 0  9994
2 62516  43.0014 126.2349 0002001 257.1238 102.9406 15.70858098 93940
STARLINK-11512 [DTC]    
1 62517U 25004G   26238.71513931  .00192495  00000+0  14587-2 0  9999
2 62517  43.0014 125.4680 0004894 299.3517  60.6862 15.70999952 93952
STARLINK-11516 [DTC]    
1 62522U 25004M   26238.73637198  .00177857  00000+0  13569-2 0  9993
2 62522  43.0001 125.6361 0001937 259.1681 100.8968 15.70895395 93953
STARLINK-11515 [DTC]    
1 62556U 25006C   26238.93186095  .00159346  00000+0  12201-2 0  9994
2 62556  43.0000 194.0393 0001633 231.5369 128.5352 15.70869327 93370
STARLINK-11517 [DTC]    
1 62559U 25006F   26238.91593151  .00239363  00000+0  18001-2 0  9992
2 62559  43.0002 193.9089 0002097 233.7248 126.3426 15.71045666 93371
STARLINK-11519 [DTC]    
1 62560U 25006G   26237.92074576  .00135727  00000+0  10427-2 0  9992
2 62560  43.0024 200.2189 0002503 257.4880 102.5707 15.70870639 93213
STARLINK-11513 [DTC]    
1 62589U 25008C   26238.90228945  .00151524  00000+0  11615-2 0  9998
2 62589  42.9995 180.2338 0001679 237.1693 122.9013 15.70870119 92883
