STARLINK-33974
1 63954U 25099C   26237.20267352  .00022221  00000+0  81425-3 0  9990
2 63954  43.0011 304.9469 0002101 282.1955  77.8662 15.27593309 73100
STARLINK-1570
1 46059U 20055AJ  26237.87405953  .00006333  00000+0  21565-3 0  9993
2 46059  53.1590  46.6067 0000910  58.1447 301.9643 15.31702006334952
STARLINK-31989
1 59959U 24107Q   26237.74183749  .00013860  00000+0  42050-3 0  9995
2 59959  53.1619 357.8576 0001659  50.5742 309.5407 15.34405930125717
STARLINK-33581
1 62784U 25015AC  26237.44550836  .00016836  00000+0  55292-3 0  9994
2 62784  53.1582 257.5220 0001058  79.9039 280.2082 15.31709058 90333
STARLINK-5520
1 57219U 23094B   26237.17278625  .00001496  00000+0  63917-4 0  9999
2 57219  43.0036 162.5557 0001515 270.0880  89.9798 15.27566642172846
STARLINK-31594
1 59332U 24057N   26237.61661736  .00000620  00000+0  32065-4 0  9993
2 59332  43.0039 324.3623 0001266 277.1885  82.8823 15.27584610135547
STARLINK-36438
1 67625U 26020J   26237.12892630  .00019545  00000+0  71740-3 0  9992
2 67625  43.0012 268.5772 0001315 260.0057 100.0647 15.27602354 31877
STARLINK-33855
1 64335U 25124U   26237.39528165  .00012605  00000+0  46669-3 0  9991
2 64335  42.9990 248.7787 0001572 276.4115  83.6558 15.27587392 67580
STARLINK-5939
1 56015U 23042AF  26237.87787288 -.00001201  00000+0 -34149-4 0  9993
2 56015  43.0013 169.4911 0001653 261.9096  98.1568 15.27563897188916
STARLINK-11431 [DTC]
1 62890U 25024M   26237.96080678  .00182930  00000+0  13952-2 0  9996
2 62890  43.0038 241.5930 0003260 291.7332  68.3188 15.70883703 90080
STARLINK-5142
1 53984U 22125W   26237.22622878  .00000038  00000+0  20516-4 0  9996
2 53984  53.1601 177.1807 0001637  76.1257 283.9917 15.08832742214908
STARLINK-34001
1 64272U 25120S   26236.52510258  .00026587  00000+0  79519-3 0  9999
2 64272  53.1564  55.6161 0001349  99.7386 260.3769 15.34401311 69539
STARLINK-31261
1 59084U 24041L   26237.93587492  .00000324  00000+0  21298-4 0  9998
2 59084  43.0041  75.0488 0001033 265.6807  94.3927 15.27572710140201
STARLINK-36566
1 67551U 26014V   26237.26273195  .00016993  00000+0  52734-3 0  9993
2 67551  97.2849 122.9429 0001963  88.1649 271.9818 15.33453892 34601
STARLINK-37365
1 69186U 26114E   26237.32126775  .00026367  00000+0  78878-3 0  9991
2 69186  53.1574 236.3609 0001298  78.4313 281.6835 15.34398723 15422
STARLINK-5518
1 56469U 23064X   26237.92140797 -.00000323  00000+0 -19298-4 0  9996
2 56469  69.9994  57.9623 0002879 265.9571  94.1259 14.98334218181082
STARLINK-37340
1 68708U 26081K   26237.88454195  .00025515  00000+0  76378-3 0  9991
2 68708  53.1592 325.6261 0002707  83.6003 276.5308 15.34396238 20688
STARLINK-36497
1 67323U 26002U   26237.94173150  .00011708  00000+0  43418-3 0  9990
2 67323  43.0002  89.4338 0001409 278.8567  81.2125 15.27589171 37021
STARLINK-5965
1 56915U 23083AR  26237.94267553  .00000155  00000+0  15175-4 0  9996
2 56915  43.0035 194.7929 0001382 268.6422  91.4272 15.27573068177686
STARLINK-33544
1 62281U 24237Q   26237.28486897  .00013580  00000+0  50202-3 0  9997
2 62281  43.0015 344.4629 0000638 309.9116  50.1680 15.27586148 96970
STARLINK-4308
1 53061U 22077U   26238.00001157  .00063343  00000+0  28003-2 0  9991
2 53061  97.2853  53.2904 0000936 109.3014 198.1251 15.21453385  5795
STARLINK-35972
1 66638U 25271X   26236.98385359  .00019887  00000+0  59783-3 0  9992
2 66638  53.1600  77.4935 0000464  51.1231 308.9813 15.34417662 43343
STARLINK-34013
1 63871U 25094H   26237.24461665  .00015894  00000+0  13355-2 0  9994
2 63871  70.0020 169.3724 0002854 263.7521  96.3313 14.98368083 72456
STARLINK-36923
1 68016U 26040B   26237.59497466  .00021042  00000+0  65247-3 0  9998
2 68016  97.2843 185.2334 0002066  89.7686 270.3794 15.33434768 27342
STARLINK-35572
1 66117U 25237D   26237.64660532  .00015124  00000+0  45782-3 0  9993
2 66117  53.1626 334.4817 0001418 104.7757 255.3403 15.34402512 48484
STARLINK-30083
1 56295U 23056K   26237.61456873  .00001294  00000+0  56522-4 0  9992
2 56295  43.0003 309.7185 0001120 278.9038  81.1687 15.27581646186150
STARLINK-5362
1 55493U 23015AW  26237.68858407  .00000609  00000+0  31667-4 0  9994
2 55493  43.0042 105.1271 0001369 273.3265  86.7430 15.27575631196449
STARLINK-30141
1 57620U 23119U   26237.29513451 -.00001153  00000+0 -32396-4 0  9994
2 57620  43.0018 209.2812 0000889 276.7804  83.2947 15.27582329168878
STARLINK-3833
1 52578U 22051AU  26236.62260809  .00000184  00000+0  16574-4 0  9998
2 52578  53.1604  89.6089 0001245  92.2618 267.8527 15.34387757236871
STARLINK-6259
1 57089U 23088AT  26237.92281730  .00000659  00000+0  33483-4 0  9996
2 57089  43.0013 220.2742 0001250 288.0617  72.0099 15.27576604176386
STARLINK-32586
1 61975U 24210S   26237.28292161  .00019315  00000+0  70919-3 0  9995
2 61975  43.0000 307.7332 0001493 267.1539  92.9142 15.27598124100666
STARLINK-11260 [DTC]
1 60997U 24158H   26237.48382496  .00003982  00000+0  37755-4 0  9997
2 60997  53.1585 147.0049 0001498 128.7914 231.3238 15.69682854114461
STARLINK-2443
1 48107U 21027R   26237.62263611  .00000042  00000+0  13122-4 0  9997
2 48107  53.1586  86.6460 0001252  92.8369 267.2775 15.31692354298562
STARLINK-34732
1 64955U 25158Z   26237.33956093  .00003435  00000+0  24181-3 0  9991
2 64955  97.2865  96.5615 0002120  71.2684 288.8773 15.05661375 60731
STARLINK-11353 [DTC]
1 61941U 24209C   26237.48433659  .00184027  00000+0  14875-2 0  9998
2 61941  53.1568 258.8266 0001408  94.6060 265.5118 15.69756598103199
STARLINK-2524
1 48304U 21036AE  26237.42727176 -.00005043  00000+0 -15081-3 0  9998
2 48304  53.1617  33.6759 0000803  95.6696 264.4397 15.31711511293914
STARLINK-35557
1 66237U 25245D   26237.97094036  .00029997  00000+0  89545-3 0  9999
2 66237  53.1564 213.3886 0001601 107.0494 253.0684 15.34397604 47230
STARLINK-34027
1 63936U 25098L   26237.90450380  .00003655  00000+0  31389-3 0  9995
2 63936  69.9995 207.6213 0003726 261.8429  98.2307 14.98332895 71905
STARLINK-1270
1 45237U 20012BM  26237.30085898  .00111543  00000+0  64691-3 0  9990
2 45237  53.0362 242.7834 0006011  38.6786 321.4664 15.77716662362036
STARLINK-1446
1 45663U 20035G   26237.39178951  .00030578  00000+0  50226-3 0  9997
2 45663  53.0188 272.5822 0003610  60.1337 300.0030 15.52158739345799
STARLINK-6096
1 56103U 23046L   26237.18918064 -.00029174  00000+0 -10635-2 0  9998
2 56103  43.0029 289.7655 0001509 144.3360 215.7593 15.27311100187800
STARLINK-36860
1 67935U 26037D   26237.62264005  .00015154  00000+0  55886-3 0  9993
2 67935  43.0049 316.9695 0001748 279.2571  80.8083 15.27591825 29175
STARLINK-6199
1 56551U 23065BA  26237.66342059  .00000012  00000+0  99482-5 0  9992
2 56551  43.0020 349.3809 0001235 267.6854  92.3857 15.27576865182319
STARLINK-32085
1 59685U 24086D   26237.92098971  .00003509  00000+0  13704-3 0  9992
2 59685  43.0018 184.1877 0001075 229.8242 130.2516 15.27562408129997
STARLINK-4109
1 53268U 22086AC  26237.07841310  .00000010  00000+0  11448-4 0  9998
2 53268  53.1625 149.0382 0001208  98.0533 262.0606 15.34384761226615
STARLINK-37841
1 69951U 26157J   26237.60419432  .00026324  00000+0  76232-3 0  9999
2 69951  53.1592  95.0416 0001791 323.2576  36.8304 15.35423336  7396
STARLINK-34031
1 63912U 25095Y   26237.23466764  .00019070  00000+0  70044-3 0  9994
2 63912  42.9967 304.4354 0002587 154.4107 205.6873 15.27591190 73558
STARLINK-4446
1 53505U 22099AS  26237.91668981  .00171989  13564-4  45975-3 0  9999
2 53505  97.6041  16.6998 0003129 248.2781  46.2546 15.94519359  5961
STARLINK-36336
1 67901U 26035Y   26237.32973146  .00018980  00000+0  58860-3 0  9999
2 67901  97.2837 169.5667 0002112  84.5480 275.6003 15.33451638 29830
STARLINK-6326
1 56787U 23078W   26237.37710426 -.00000035  00000+0  48649-5 0  9997
2 56787  69.9976 259.0413 0003758 267.6556  92.4172 14.98331513178442
STARLINK-32857
1 62949U 25029B   26237.52500576  .00026832  00000+0  80273-3 0  9991
2 62949  53.1591 162.8116 0001370  93.2461 266.8699 15.34388171 87289
STARLINK-30853
1 58236U 23171G   26237.86086816 -.00001271  00000+0 -36671-4 0  9990
2 58236  43.0028  50.1368 0000605 296.3425  63.7364 15.27585887155600
STARLINK-35816
1 66499U 25263Q   26237.37705473  .00013057  00000+0  48309-3 0  9990
2 66499  42.9980 118.3751 0000953 281.3836  78.6909 15.27584872 44693
STARLINK-37083
1 68227U 26053W   26237.64294870  .00013647  00000+0  42410-3 0  9995
2 68227  97.2847 111.8313 0002933  81.7149 278.4426 15.33455975 26085
STARLINK-32416
1 61589U 24187R   26237.70073954  .00001718  00000+0  61995-4 0  9996
2 61589  53.1579 341.9815 0001701  85.6860 274.4337 15.34390771105213
STARLINK-3088
1 49163U 21082AK  26237.90830144  .00000595  00000+0  58815-4 0  9994
2 49163  69.9985 209.1155 0003631 267.5003  92.5740 14.97519908272944
STARLINK-30861
1 58230U 23171A   26237.87041690  .00070915  00000+0  18940-2 0  9992
2 58230  42.9906  46.6423 0015152 281.9804  77.9352 15.37093587155643
STARLINK-4797
1 53852U 22114AL  26237.73149951  .00000101  00000+0  15008-4 0  9991
2 53852  53.1587 243.9915 0001146  85.9599 274.1534 15.31700428218642
STARLINK-34622
1 66015U 25232L   26237.47213345  .00027498  00000+0  82217-3 0  9993
2 66015  53.1577  37.3231 0000551  49.3460 310.7590 15.34393275 49307
STARLINK-30472
1 57901U 23146L   26237.88070005  .00001037  00000+0  47212-4 0  9996
2 57901  43.0041  75.1313 0001361 258.7928 101.2771 15.27580713161914
STARLINK-36448
1 67354U 26003W   26237.71678938  .00018014  00000+0  66170-3 0  9991
2 67354  43.0039 352.5575 0001943 273.6930  86.3700 15.27621556 34679
STARLINK-6203
1 56899U 23083Z   26237.90539778  .00000604  00000+0  31484-4 0  9994
2 56899  43.0032 205.8116 0001533 267.5389  92.5287 15.27568847177658
STARLINK-31379
1 58984U 24031V   26237.27236606  .00000267  00000+0  19028-4 0  9994
2 58984  53.1579 232.2461 0001112  75.7146 284.3980 15.34391346142348
STARLINK-37045
1 68074U 26042F   26237.35714759  .00028123  00000+0  84009-3 0  9999
2 68074  53.1571 112.1240 0000252 122.0806 238.0221 15.34409993 28171
STARLINK-34362
1 64292U 25123B   26237.70737377  .00119598  00000+0  98670-2 0  9991
2 64292  70.0041 128.3893 0001953 301.4662  58.6305 14.98307519 68155
STARLINK-35671
1 66392U 25257N   26237.09000950  .00031445  00000+0  93788-3 0  9994
2 66392  53.1591 152.8868 0001165  68.1160 291.9967 15.34400404 45541
STARLINK-5164
1 54178U 22141X   26237.37958319  .00006632  00000+0  20712-3 0  9991
2 54178  53.1612 315.8274 0001593 106.8001 253.3177 15.34420843211476
STARLINK-3154
1 49417U 21104K   26237.52939253  .00000718  00000+0  32387-4 0  9993
2 49417  53.1619 173.4718 0001308 106.1336 253.9811 15.34384892264351
STARLINK-6082
1 56110U 23046T   26237.48007792  .00000424  00000+0  24932-4 0  9998
2 56110  43.0028 288.4954 0001491 278.9487  81.1196 15.27578028187841
STARLINK-31825
1 60056U 24112U   26237.64373188  .00006530  00000+0  20422-3 0  9993
2 60056  53.1579  12.5590 0001577  81.4925 278.6256 15.34403885124475
STARLINK-1557
1 46034U 20055H   26237.91483982  .00000814  00000+0  37967-4 0  9991
2 46034  53.1601  59.9836 0000909  83.5405 276.5700 15.31705409334785
STARLINK-5756
1 55598U 23020AF  26237.68809440  .00000026  00000+0  10473-4 0  9994
2 55598  43.0008 119.9489 0001566 253.9550 106.1129 15.27576484194886
STARLINK-30815
1 58164U 23166Q   26237.25216398  .00000830  00000+0  38507-4 0  9995
2 58164  53.1598 155.4812 0001308  75.2969 284.8178 15.31713583159003
STARLINK-32532
1 62156U 24224T   26237.53050323  .00016627  00000+0  61166-3 0  9999
2 62156  42.9971 284.4453 0000624 278.5417  81.5364 15.27617047 98149
STARLINK-36155
1 66938U 25286P   26237.41461094  .00025996  00000+0  77804-3 0  9993
2 66938  53.1595 291.5979 0001225  87.3848 272.7294 15.34392866 41298
STARLINK-32522
1 61981U 24210Y   26237.60214674  .00023016  00000+0  84302-3 0  9995
2 61981  43.0029 305.8392 0002288 287.6265  72.4336 15.27589371100713
STARLINK-5804
1 55788U 23028AZ  26237.72622020 -.00000087  00000+0  53529-6 0  9994
2 55788  70.0005 138.3603 0003023 269.5742  90.5071 14.98329618192346
STARLINK-11639 [DTC]
1 63189U 25048G   26237.45084401  .00157201  00000+0  12021-2 0  9995
2 63189  42.9967  22.5934 0001184 268.2524  91.8208 15.70908015 85067
STARLINK-32381
1 61066U 24164S   26237.42788164  .00003451  00000+0  11323-3 0  9991
2 61066  53.1634  27.2389 0000725  75.1124 284.9959 15.34394017109315
STARLINK-1835
1 46782U 20074AV  26237.83005346  .01055109  74280-3  80206-3 0  9993
2 46782  53.0245 149.5140 0003831 225.6824 134.3897 16.14658715324026
STARLINK-3349
1 50813U 22001L   26237.83466146  .00057732  00000+0  92546-3 0  9992
2 50813  53.1985  41.5634 0002038 151.5109 208.6014 15.52551929257197
STARLINK-3582
1 51873U 22022X   26237.63007562  .00023861  00000+0  93012-3 0  9998
2 51873  53.1999 311.5376 0005113  39.4582 320.6789 15.25849605248890
STARLINK-34516
1 64605U 25137M   26237.50442445  .00014407  00000+0  47498-3 0  9997
2 64605  53.1576 269.5181 0000977  72.6435 287.4673 15.31709704 66705
STARLINK-4026
1 52600U 22052C   26237.28574425  .00000532  00000+0  28921-4 0  9996
2 52600  53.1581 233.8308 0001252  57.9258 302.1865 15.31703091237222
STARLINK-33662
1 63285U 25053W   26237.37906886  .00027805  00000+0  10156-2 0  9992
2 63285  43.0014   8.9885 0002236 281.5868  78.4733 15.27596798 81995
STARLINK-30124
1 56690U 23067C   26237.74198406  .00000678  00000+0  34187-4 0  9990
2 56690  43.0035  46.6093 0002225 276.7757  83.2841 15.27570807181438
STARLINK-1656
1 46353U 20062AE  26238.00001157  .00349123  58200-4  95789-3 0  9998
2 46353  53.0316 242.7499 0010857  36.0586 108.5455 15.93407278  6029
STARLINK-33567
1 62773U 25015R   26237.46219178  .00018460  00000+0  55589-3 0  9999
2 62773  53.1578 255.4986 0001139  85.8948 274.2184 15.34413334 90368
STARLINK-30433
1 57878U 23144Q   26237.53125086  .00002596  00000+0  10381-3 0  9996
2 57878  43.0051  51.3259 0001463 264.5961  95.4724 15.27581747163460
STARLINK-34910
1 66269U 25247E   26237.71023251  .00027354  00000+0  81820-3 0  9992
2 66269  53.1578 122.6225 0001426  98.5910 261.5254 15.34382260 46969
STARLINK-5045
1 53900U 22119Q   26237.91668981  .00094769  00000+0  37515-2 0  9997
2 53900  53.1607 282.7322 0001884 105.8825  92.8909 15.24664675  5858
STARLINK-35164
1 65519U 25198AD  26237.89465149  .00020024  00000+0  60218-3 0  9994
2 65519  53.1553 201.6783 0002322 102.8817 257.2445 15.34399507 54579
STARLINK-37387
1 68973U 26099Y   26237.92291985  .00022537  00000+0  67614-3 0  9999
2 68973  53.1539 194.9446 0001368  96.0876 264.0282 15.34400173 17989
STARLINK-3577
1 51884U 22022AJ  26237.61443856 -.00000063  00000+0  92827-5 0  9993
2 51884  53.1591 311.0739 0001107  84.9748 275.1381 15.34402378248968
STARLINK-2049
1 47356U 21005H   26237.67754367 -.00010281  00000+0 -31963-3 0  9996
2 47356  53.1599 330.5804 0000743  89.2676 270.8411 15.31737033309271
STARLINK-37196
1 69163U 26111R   26237.86823865  .00024414  00000+0  73123-3 0  9995
2 69163  53.1565 185.5392 0001296  88.0661 272.0490 15.34405003 14961
STARLINK-35157
1 65814U 25218Z   26237.55143314  .00002528  00000+0  17897-3 0  9999
2 65814  97.2855  95.6960 0002033  82.8220 277.3239 15.05660393 50384
STARLINK-11311 [DTC]
1 61253U 24175L   26237.60318591 -.00000908  00000+0 -26296-5 0  9997
2 61253  53.1564 303.7698 0001737  97.3349 262.7866 15.69695679111106
STARLINK-37221
1 68668U 26077G   26237.39718583  .00012480  00000+0  38823-3 0  9991
2 68668  97.2857 107.6760 0001360  98.1564 261.9833 15.33446122 21011
STARLINK-34008
1 64037U 25102R   26237.87345098  .00001956  00000+0  17173-3 0  9996
2 64037  69.9996  47.8980 0003082 263.2407  96.8401 14.98316493 71300
